ORBCOMM FM20            
1 25416U 98046D   24291.58146890  .00003998  00000+0  14093-2 0  9991
2 25416  44.9936 249.3072 0001421 320.8766  39.1978 14.36058094369412
ORBCOMM FM16            
1 25417U 98046E   24291.90342314  .00005387  00000+0  18340-2 0  9990
2 25417  44.9932 242.1902 0002312 162.3120 197.7808 14.37347185369376
ORBCOMM FM15            
1 25418U 98046F   24291.89295588  .00004629  00000+0  15928-2 0  9996
2 25418  44.9963 246.7032 0001882 169.9683 190.1203 14.37024390369379
ORBCOMM FM14            
1 25419U 98046G   24291.89447088  .00004830  00000+0  16514-2 0  9997
2 25419  44.9955 245.5424 0000724 144.7783 215.3112 14.37280849369551
ORBCOMM FM13            
1 25420U 98046H   24291.89067149  .00004660  00000+0  16250-2 0  9993
2 25420  44.9969 251.4372 0002863 137.9170 222.1897 14.36356833369514
ORBCOMM FM21            
1 25475U 98053A   24292.20204289  .00004629  00000+0  16198-2 0  9991
2 25475  45.0089 334.5701 0001435 267.3376  92.7307 14.36188832362778
ORBCOMM FM22            
1 25476U 98053B   24291.55600972  .00004171  00000+0  14441-2 0  9999
2 25476  45.0082 334.1631 0000453  22.5665 337.5203 14.36892072362718
ORBCOMM FM23            
1 25477U 98053C   24291.52920436  .00003655  00000+0  12881-2 0  9999
2 25477  45.0090 340.1172 0000549 289.9155  70.1634 14.36245403362802
